[{"OBJECT_NAME":"YAOGAN-40 03A","OBJECT_ID":"2025-199A","EPOCH":"2026-03-09T23:03:31.278816","MEAN_MOTION":14.26419606,"ECCENTRICITY":0.00148498,"INCLINATION":85.9829,"RA_OF_ASC_NODE":86.7514,"ARG_OF_PERICENTER":35.6299,"MEAN_ANOMALY":324.588,"EPHEMERIS_TYPE":0,"CLASSIFICATION_TYPE":"U","NORAD_CAT_ID":65544,"ELEMENT_SET_NO":999,"REV_AT_EPOCH":2627,"BSTAR":0.00017546994,"MEAN_MOTION_DOT":4.42e-6,"MEAN_MOTION_DDOT":0},{"OBJECT_NAME":"CZ-6A DEB","OBJECT_ID":"2024-140GF","EPOCH":"2026-03-09T14:35:41.574048","MEAN_MOTION":14.13227551,"ECCENTRICITY":0.0076252,"INCLINATION":89.0367,"RA_OF_ASC_NODE":289.3578,"ARG_OF_PERICENTER":152.3204,"MEAN_ANOMALY":208.2074,"EPHEMERIS_TYPE":0,"CLASSIFICATION_TYPE":"U","NORAD_CAT_ID":60804,"ELEMENT_SET_NO":999,"REV_AT_EPOCH":8026,"BSTAR":0.00018729,"MEAN_MOTION_DOT":3.75e-6,"MEAN_MOTION_DDOT":0}]
